NORAD_CAT_ID,OBJECT_NAME,OBJECT_TYPE,EPOCH,MEAN_MOTION,ECCENTRICITY,INCLINATION,RA_OF_ASC_NODE,ARG_OF_PERICENTER,MEAN_ANOMALY,BSTAR,MEAN_MOTION_DOT,MEAN_MOTION_DDOT,TLE_LINE0,TLE_LINE1,TLE_LINE2,SEMIMAJOR_AXIS,PERIOD,APOGEE,PERIGEE,DECAYED
55781.0,STARLINK-5820,PAYLOAD,2024-05-03 10:03:04,14.99142941,0.0003152,69.998,127.1041,269.061,91.0188,0.00012301,1.406e-05,0.0,0 STARLINK-5820,1 55781U 23028AS  24124.41880693  .00001406  00000-0  12301-3 0  9994,2 55781  69.9980 127.1041 0003152 269.0610  91.0188 14.99142941 65383,6947.68,96.055,571.735,567.355,0.0
55781.0,STARLINK-5820,PAYLOAD,2024-05-04 03:39:59,14.99136961,0.0003116,69.9981,125.2511,269.0929,90.9873,6.2538e-07,-8.6e-07,0.0,0 STARLINK-5820,1 55781U 23028AS  24125.15277759 -.00000086  00000-0  62538-6 0  9993,2 55781  69.9981 125.2511 0003116 269.0929  90.9873 14.99136961 65494,6947.699,96.055,571.728,567.399,0.0
55781.0,STARLINK-5820,PAYLOAD,2024-05-05 03:41:14,14.99141086,0.0003061,69.9983,122.7245,269.9237,90.1572,-8.5097e-06,-1.97e-06,0.0,0 STARLINK-5820,1 55781U 23028AS  24126.15363589 -.00000197  00000-0 -85097-5 0  9999,2 55781  69.9983 122.7245 0003061 269.9237  90.1572 14.99141086 65641,6947.686,96.055,571.677,567.424,0.0
55781.0,STARLINK-5820,PAYLOAD,2024-05-05 10:05:33,14.9914135,0.0003032,69.9984,122.051,268.9736,91.1076,-2.2029e-06,-1.21e-06,0.0,0 STARLINK-5820,1 55781U 23028AS  24126.42053116 -.00000121  00000-0 -22029-5 0  9994,2 55781  69.9984 122.0510 0003032 268.9736  91.1076 14.99141350 65689,6947.685,96.055,571.657,567.443,0.0
55781.0,STARLINK-5820,PAYLOAD,2024-05-06 03:42:28,14.99140719,0.0003081,69.9984,120.1977,270.0511,90.0296,0.00010046,1.131e-05,0.0,0 STARLINK-5820,1 55781U 23028AS  24127.15449209  .00001131  00000-0  10046-3 0  9991,2 55781  69.9984 120.1977 0003081 270.0511  90.0296 14.99140719 65796,6947.687,96.055,571.693,567.411,0.0
55781.0,STARLINK-5820,PAYLOAD,2024-05-06 10:06:47,14.991429,0.0003053,69.9984,119.5241,269.5548,90.5262,0.00011786,1.343e-05,0.0,0 STARLINK-5820,1 55781U 23028AS  24127.42138585  .00001343  00000-0  11786-3 0  9990,2 55781  69.9984 119.5241 0003053 269.5548  90.5262 14.99142900 65831,6947.68,96.055,571.666,567.424,0.0
55781.0,STARLINK-5820,PAYLOAD,2024-05-06 16:31:07,14.99142449,0.0003054,69.9984,118.8502,269.6128,90.4682,9.8326e-05,1.105e-05,0.0,0 STARLINK-5820,1 55781U 23028AS  24127.68828240  .00001105  00000-0  98326-4 0  9994,2 55781  69.9984 118.8502 0003054 269.6128  90.4682 14.99142449 65876,6947.682,96.055,571.668,567.425,0.0
55781.0,STARLINK-5820,PAYLOAD,2024-05-07 05:19:47,14.99143499,0.0003007,69.9986,117.5027,268.6042,91.4773,6.992e-05,7.58e-06,0.0,0 STARLINK-5820,1 55781U 23028AS  24128.22207332  .00000758  00000-0  69920-4 0  9999,2 55781  69.9986 117.5027 0003007 268.6042  91.4773 14.99143499 65955,6947.678,96.055,571.633,567.454,0.0
55781.0,STARLINK-5820,PAYLOAD,2024-05-07 08:31:57,14.99143611,0.0003005,69.9986,117.1658,268.5931,91.4884,6.8676e-05,7.43e-06,0.0,0 STARLINK-5820,1 55781U 23028AS  24128.35552089  .00000743  00000-0  68676-4 0  9996,2 55781  69.9986 117.1658 0003005 268.5931  91.4884 14.99143611 65976,6947.678,96.055,571.631,567.455,0.0
55781.0,STARLINK-5820,PAYLOAD,2024-05-07 22:56:41,14.99139174,0.0002939,69.9987,115.65,268.6809,91.4014,-3.9988e-05,-5.81e-06,0.0,0 STARLINK-5820,1 55781U 23028AS  24128.95604119 -.00000581  00000-0 -39988-4 0  9990,2 55781  69.9987 115.6500 0002939 268.6809  91.4014 14.99139174 66061,6947.692,96.055,571.599,567.515,0.0
55781.0,STARLINK-5820,PAYLOAD,2024-05-08 05:21:01,14.99137528,0.000296,69.9987,114.9762,269.4059,90.6761,-5.4265e-05,-7.55e-06,0.0,0 STARLINK-5820,1 55781U 23028AS  24129.22293895 -.00000755  00000-0 -54265-4 0  9994,2 55781  69.9987 114.9762 0002960 269.4059  90.6761 14.99137528 66109,6947.697,96.055,571.618,567.505,0.0
55781.0,STARLINK-5820,PAYLOAD,2024-05-08 08:33:11,14.99137754,0.000296,69.9987,114.6392,269.5126,90.5694,-5.0557e-05,-7.1e-06,0.0,0 STARLINK-5820,1 55781U 23028AS  24129.35638670 -.00000710  00000-0 -50557-4 0  9993,2 55781  69.9987 114.6392 0002960 269.5126  90.5694 14.99137754 66128,6947.696,96.055,571.618,567.505,0.0
55781.0,STARLINK-5820,PAYLOAD,2024-05-08 16:33:36,14.9913896,0.0002998,69.9986,113.7968,269.9147,90.1669,-2.3306e-05,-3.78e-06,0.0,0 STARLINK-5820,1 55781U 23028AS  24129.69000521 -.00000378  00000-0 -23306-4 0  9990,2 55781  69.9986 113.7968 0002998 269.9147  90.1669 14.99138960 66177,6947.692,96.055,571.64,567.474,0.0
55781.0,STARLINK-5820,PAYLOAD,2024-05-09 05:22:15,14.99142506,0.000303,69.9986,112.4492,269.7933,90.2879,2.6318e-05,2.27e-06,0.0,0 STARLINK-5820,1 55781U 23028AS  24130.22379312  .00000227  00000-0  26318-4 0  9995,2 55781  69.9986 112.4492 0003030 269.7933  90.2879 14.99142506 66258,6947.681,96.055,571.652,567.441,0.0
55781.0,STARLINK-5820,PAYLOAD,2024-05-09 08:34:25,14.99143314,0.0003024,69.9987,112.1123,269.9018,90.1795,3.5613e-05,3.4e-06,0.0,0 STARLINK-5820,1 55781U 23028AS  24130.35724013  .00000340  00000-0  35613-4 0  9995,2 55781  69.9987 112.1123 0003024 269.9018  90.1795 14.99143314 66272,6947.679,96.055,571.645,567.443,0.0
55781.0,STARLINK-5820,PAYLOAD,2024-05-09 22:59:10,14.99138654,0.0003025,69.9987,110.596,269.8359,90.2453,0.00010421,1.176e-05,0.0,0 STARLINK-5820,1 55781U 23028AS  24130.95775738  .00001176  00000-0  10421-3 0  9998,2 55781  69.9987 110.5960 0003025 269.8359  90.2453 14.99138654 66364,6947.693,96.055,571.66,567.457,0.0
55781.0,STARLINK-5820,PAYLOAD,2024-05-10 05:23:29,14.99140843,0.0003051,69.9986,109.9224,270.0504,90.0306,0.00010797,1.222e-05,0.0,0 STARLINK-5820,1 55781U 23028AS  24131.22465243  .00001222  00000-0  10797-3 0  9994,2 55781  69.9986 109.9224 0003051 270.0504  90.0306 14.99140843 66406,6947.687,96.055,571.671,567.432,0.0
55781.0,STARLINK-5820,PAYLOAD,2024-05-10 08:35:39,14.99142571,0.0003035,69.9987,109.5854,270.0154,90.0658,0.00012401,1.418e-05,0.0,0 STARLINK-5820,1 55781U 23028AS  24131.35809889  .00001418  00000-0  12401-3 0  9997,2 55781  69.9987 109.5854 0003035 270.0154  90.0658 14.99142571 66427,6947.681,96.055,571.655,567.438,0.0
55781.0,STARLINK-5820,PAYLOAD,2024-05-10 23:00:24,14.99139066,0.0002862,70.0006,108.0691,270.9309,89.1522,4.4368e-05,4.47e-06,0.0,0 STARLINK-5820,1 55781U 23028AS  24131.95862007  .00000447  00000-0  44368-4 0  9993,2 55781  70.0006 108.0691 0002862 270.9309  89.1522 14.99139066 66517,6947.692,96.055,571.545,567.569,0.0
55781.0,STARLINK-5820,PAYLOAD,2024-05-11 08:36:52,14.99164242,0.0002806,70.0003,107.0611,260.1434,99.9409,0.00025921,3.068e-05,0.0,0 STARLINK-5820,1 55781U 23028AS  24132.35894591  .00003068  00000-0  25921-3 0  9996,2 55781  70.0003 107.0611 0002806 260.1434  99.9409 14.99164242 66576,6947.614,96.054,571.429,567.53,0.0
55781.0,STARLINK-5820,PAYLOAD,2024-05-11 21:25:31,14.99173003,0.0002522,69.9998,105.7103,273.1001,86.9869,0.00020015,2.348e-05,0.0,0 STARLINK-5820,1 55781U 23028AS  24132.89272271  .00002348  00000-0  20015-3 0  9999,2 55781  69.9998 105.7103 0002522 273.1001  86.9869 14.99173003 66656,6947.587,96.053,571.204,567.7,0.0
55781.0,STARLINK-5820,PAYLOAD,2024-05-11 23:01:36,14.99172145,0.0002696,69.9995,105.5431,270.6647,89.4203,0.00021403,2.517e-05,0.0,0 STARLINK-5820,1 55781U 23028AS  24132.95944519  .00002517  00000-0  21403-3 0  9997,2 55781  69.9995 105.5431 0002696 270.6647  89.4203 14.99172145 66662,6947.59,96.053,571.328,567.582,0.0
55781.0,STARLINK-5820,PAYLOAD,2024-05-12 03:49:57,14.99087212,0.0002998,69.9992,105.0381,267.6426,92.439,-0.00058569,-7.213e-05,0.0,0 STARLINK-5820,1 55781U 23028AS  24133.15968777 -.00007213  00000-0 -58569-3 0  9995,2 55781  69.9992 105.0381 0002998 267.6426  92.4390 14.99087212 66698,6947.852,96.058,571.8,567.634,0.0
55781.0,STARLINK-5820,PAYLOAD,2024-05-12 08:38:13,14.99077262,0.0002803,69.9998,104.5322,272.4691,87.6147,-0.00063635,-7.826e-05,0.0,0 STARLINK-5820,1 55781U 23028AS  24133.35987389 -.00007826  00000-0 -63635-3 0  9997,2 55781  69.9998 104.5322 0002803 272.4691  87.6147 14.99077262 66720,6947.883,96.059,571.695,567.801,0.0
55781.0,STARLINK-5820,PAYLOAD,2024-05-12 15:02:32,14.9909629,0.0003476,70.0001,103.8602,269.7715,90.3047,-0.00063855,-7.857e-05,0.0,0 STARLINK-5820,1 55781U 23028AS  24133.62676214 -.00007857  00000-0 -63855-3 0  9997,2 55781  70.0001 103.8602 0003476 269.7715  90.3047 14.99096290 66760,6947.824,96.058,572.104,567.274,0.0
55781.0,STARLINK-5820,PAYLOAD,2024-05-12 23:02:57,14.9908953,0.0003768,69.9998,103.0157,269.7038,90.369,-0.0004335,-5.365e-05,0.0,0 STARLINK-5820,1 55781U 23028AS  24133.96038990 -.00005365  00000-0 -43350-3 0  9997,2 55781  69.9998 103.0157 0003768 269.7038  90.3690 14.99089530 66810,6947.845,96.058,572.328,567.092,0.0
55781.0,STARLINK-5820,PAYLOAD,2024-05-13 02:15:06,14.99108262,0.000294,69.9983,102.6798,271.9916,88.0907,-0.00031092,-3.877e-05,0.0,0 STARLINK-5820,1 55781U 23028AS  24134.09382783 -.00003877  00000-0 -31092-3 0  9990,2 55781  69.9983 102.6798 0002940 271.9916  88.0907 14.99108262 66832,6947.787,96.057,571.695,567.61,0.0
55781.0,STARLINK-5820,PAYLOAD,2024-05-13 08:39:24,14.99140399,0.0002958,69.9998,102.0106,251.0643,109.0196,-1.8619e-05,-3.21e-06,0.0,0 STARLINK-5820,1 55781U 23028AS  24134.36069744 -.00000321  00000-0 -18619-4 0  9991,2 55781  69.9998 102.0106 0002958 251.0643 109.0196 14.99140399 66875,6947.688,96.055,571.608,567.498,0.0
55781.0,STARLINK-5820,PAYLOAD,2024-05-13 15:03:43,14.99148873,0.0003126,69.9995,101.3321,273.4394,86.6407,-4.0708e-05,-5.9e-06,0.0,0 STARLINK-5820,1 55781U 23028AS  24134.62758896 -.00000590  00000-0 -40708-4 0  9995,2 55781  69.9995 101.3321 0003126 273.4394  86.6407 14.99148873 66917,6947.662,96.055,571.699,567.355,0.0
55781.0,STARLINK-5820,PAYLOAD,2024-05-14 03:52:22,14.99153726,0.0003408,69.999,99.9831,275.3226,84.7545,-6.5905e-06,-1.74e-06,0.0,0 STARLINK-5820,1 55781U 23028AS  24135.16137552 -.00000174  00000-0 -65905-5 0  9990,2 55781  69.9990  99.9831 0003408 275.3226  84.7545 14.99153726 66991,6947.647,96.054,571.88,567.144,0.0
